[
    {
        "Altitude(m)": 605459.016406131,
        "Argument of Periapsis(deg)": 0.0,
        "Eccentricity": 0.0,
        "Inclination(deg)": 60.0,
        "Latitude(deg)": 27.988173766617635,
        "Longitude(deg)": -27.201464050412785,
        "Mean Anomaly(deg)": 32.7273,
        "RAAN(deg)": 55.00000000000001,
        "Satellite Name": "Test1 244",
        "Satellite Number": 244,
        "Semi-Major Axis(m)": 6980739.136638005,
        "Time(s)": 0
    },
    {
        "Altitude(m)": 605535.8074574986,
        "Argument of Periapsis(deg)": 0.00010418945913296404,
        "Eccentricity": 0.0,
        "Inclination(deg)": 60.0,
        "Latitude(deg)": 28.501303857929656,
        "Longitude(deg)": -26.844520166988758,
        "Mean Anomaly(deg)": 33.347406145461825,
        "RAAN(deg)": 54.999579950860266,
        "Satellite Name": "Test1 244",
        "Satellite Number": 244,
        "Semi-Major Axis(m)": 6980739.136638005,
        "Time(s)": 10
    },
    {
        "Altitude(m)": 605614.2891376014,
        "Argument of Periapsis(deg)": 0.0002083789182659281,
        "Eccentricity": 0.0,
        "Inclination(deg)": 60.0,
        "Latitude(deg)": 29.013216432652968,
        "Longitude(deg)": -26.483711457344874,
        "Mean Anomaly(deg)": 33.96751229092366,
        "RAAN(deg)": 54.999159901720525,
        "Satellite Name": "Test1 244",
        "Satellite Number": 244,
        "Semi-Major Axis(m)": 6980739.136638005,
        "Time(s)": 20
    },
    {
        "Altitude(m)": 605694.4037542858,
        "Argument of Periapsis(deg)": 0.00031256837739889213,
        "Eccentricity": 0.0,
        "Inclination(deg)": 60.0,
        "Latitude(deg)": 29.523874218048565,
        "Longitude(deg)": -26.11892616562191,
        "Mean Anomaly(deg)": 34.5876184363855,
        "RAAN(deg)": 54.99873985258077,
        "Satellite Name": "Test1 244",
        "Satellite Number": 244,
        "Semi-Major Axis(m)": 6980739.136638005,
        "Time(s)": 30
    },
    {
        "Altitude(m)": 605776.0930060381,
        "Argument of Periapsis(deg)": 0.0004167578365318562,
        "Eccentricity": 0.0,
        "Inclination(deg)": 60.0,
        "Latitude(deg)": 30.033238944909556,
        "Longitude(deg)": -25.750049529649136,
        "Mean Anomaly(deg)": 35.20772458184732,
        "RAAN(deg)": 54.99831980344103,
        "Satellite Name": "Test1 244",
        "Satellite Number": 244,
        "Semi-Major Axis(m)": 6980739.136638005,
        "Time(s)": 40
    },
    {
        "Altitude(m)": 605859.2980123262,
        "Argument of Periapsis(deg)": 0.0005209472956648203,
        "Eccentricity": 0.0,
        "Inclination(deg)": 60.0,
        "Latitude(deg)": 30.541271308825362,
        "Longitude(deg)": -25.37696472212729,
        "Mean Anomaly(deg)": 35.827830727309156,
        "RAAN(deg)": 54.99789975430129,
        "Satellite Name": "Test1 244",
        "Satellite Number": 244,
        "Semi-Major Axis(m)": 6980739.136638005,
        "Time(s)": 50
    },
    {
        "Altitude(m)": 605943.9593441945,
        "Argument of Periapsis(deg)": 0.0006251367547977843,
        "Eccentricity": 0.0,
        "Inclination(deg)": 60.0,
        "Latitude(deg)": 31.047930930089922,
        "Longitude(deg)": -24.999552278764654,
        "Mean Anomaly(deg)": 36.44793687277097,
        "RAAN(deg)": 54.99747970516154,
        "Satellite Name": "Test1 244",
        "Satellite Number": 244,
        "Semi-Major Axis(m)": 6980739.136638005,
        "Time(s)": 60
    },
    {
        "Altitude(m)": 606030.0170550594,
        "Argument of Periapsis(deg)": 0.0007293262139307483,
        "Eccentricity": 0.0,
        "Inclination(deg)": 60.0,
        "Latitude(deg)": 31.553176312211896,
        "Longitude(deg)": -24.617689526401527,
        "Mean Anomaly(deg)": 37.068043018232814,
        "RAAN(deg)": 54.9970596560218,
        "Satellite Name": "Test1 244",
        "Satellite Number": 244,
        "Semi-Major Axis(m)": 6980739.136638005,
        "Time(s)": 70
    },
    {
        "Altitude(m)": 606117.4107117142,
        "Argument of Periapsis(deg)": 0.0008335156730637124,
        "Eccentricity": 0.0,
        "Inclination(deg)": 60.0,
        "Latitude(deg)": 32.05696479898357,
        "Longitude(deg)": -24.23125152417997,
        "Mean Anomaly(deg)": 37.68814916369463,
        "RAAN(deg)": 54.996639606882056,
        "Satellite Name": "Test1 244",
        "Satellite Number": 244,
        "Semi-Major Axis(m)": 6980739.136638005,
        "Time(s)": 80
    },
    {
        "Altitude(m)": 606206.0794255217,
        "Argument of Periapsis(deg)": 0.0009377051321966765,
        "Eccentricity": 0.0,
        "Inclination(deg)": 60.0,
        "Latitude(deg)": 32.55925253007416,
        "Longitude(deg)": -23.840110492222646,
        "Mean Anomaly(deg)": 38.308255309156465,
        "RAAN(deg)": 54.996219557742315,
        "Satellite Name": "Test1 244",
        "Satellite Number": 244,
        "Semi-Major Axis(m)": 6980739.136638005,
        "Time(s)": 90
    },
    {
        "Altitude(m)": 606295.9618837764,
        "Argument of Periapsis(deg)": 0.0010418945913296407,
        "Eccentricity": 0.0,
        "Inclination(deg)": 60.0,
        "Latitude(deg)": 33.05999439510648,
        "Longitude(deg)": -23.444135240925537,
        "Mean Anomaly(deg)": 38.928361454618305,
        "RAAN(deg)": 54.99579950860257,
        "Satellite Name": "Test1 244",
        "Satellite Number": 244,
        "Semi-Major Axis(m)": 6980739.136638005,
        "Time(s)": 100
    },
    {
        "Altitude(m)": 606386.9963812168,
        "Argument of Periapsis(deg)": 0.0011460840504626045,
        "Eccentricity": 0.0,
        "Inclination(deg)": 60.0,
        "Latitude(deg)": 33.55914398617743,
        "Longitude(deg)": -23.043192114000444,
        "Mean Anomaly(deg)": 39.54846760008012,
        "RAAN(deg)": 54.99537945946283,
        "Satellite Name": "Test1 244",
        "Satellite Number": 244,
        "Semi-Major Axis(m)": 6980739.136638005,
        "Time(s)": 110
    },
    {
        "Altitude(m)": 606479.1208516875,
        "Argument of Periapsis(deg)": 0.0012502735095955685,
        "Eccentricity": 0.0,
        "Inclination(deg)": 60.0,
        "Latitude(deg)": 34.056653548791424,
        "Longitude(deg)": -22.637144419813065,
        "Mean Anomaly(deg)": 40.16857374554196,
        "RAAN(deg)": 54.99495941032309,
        "Satellite Name": "Test1 244",
        "Satellite Number": 244,
        "Semi-Major Axis(m)": 6980739.136638005,
        "Time(s)": 120
    },
    {
        "Altitude(m)": 606572.272899909,
        "Argument of Periapsis(deg)": 0.0013544629687285324,
        "Eccentricity": 0.0,
        "Inclination(deg)": 60.0,
        "Latitude(deg)": 34.55247393117079,
        "Longitude(deg)": -22.225851864216022,
        "Mean Anomaly(deg)": 40.7886798910038,
        "RAAN(deg)": 54.99453936118335,
        "Satellite Name": "Test1 244",
        "Satellite Number": 244,
        "Semi-Major Axis(m)": 6980739.136638005,
        "Time(s)": 130
    },
    {
        "Altitude(m)": 606666.3898333702,
        "Argument of Periapsis(deg)": 0.0014586524278614966,
        "Eccentricity": 0.0,
        "Inclination(deg)": 60.0,
        "Latitude(deg)": 35.04655453190956,
        "Longitude(deg)": -21.809171498110278,
        "Mean Anomaly(deg)": 41.40878603646563,
        "RAAN(deg)": 54.99411931204361,
        "Satellite Name": "Test1 244",
        "Satellite Number": 244,
        "Semi-Major Axis(m)": 6980739.136638005,
        "Time(s)": 140
    },
    {
        "Altitude(m)": 606761.4086943041,
        "Argument of Periapsis(deg)": 0.0015628418869944607,
        "Eccentricity": 0.0,
        "Inclination(deg)": 60.0,
        "Latitude(deg)": 35.538843245947845,
        "Longitude(deg)": -21.386957154391766,
        "Mean Anomaly(deg)": 42.02889218192746,
        "RAAN(deg)": 54.99369926290386,
        "Satellite Name": "Test1 244",
        "Satellite Number": 244,
        "Semi-Major Axis(m)": 6980739.136638005,
        "Time(s)": 150
    },
    {
        "Altitude(m)": 606857.266291734,
        "Argument of Periapsis(deg)": 0.0016670313461274247,
        "Eccentricity": 0.0,
        "Inclination(deg)": 60.0,
        "Latitude(deg)": 36.0292864088395,
        "Longitude(deg)": -20.95905888759972,
        "Mean Anomaly(deg)": 42.64899832738928,
        "RAAN(deg)": 54.99327921376412,
        "Satellite Name": "Test1 244",
        "Satellite Number": 244,
        "Semi-Major Axis(m)": 6980739.136638005,
        "Time(s)": 160
    },
    {
        "Altitude(m)": 606953.899233597,
        "Argument of Periapsis(deg)": 0.0017712208052603888,
        "Eccentricity": 0.0,
        "Inclination(deg)": 60.0,
        "Latitude(deg)": 36.51782873929044,
        "Longitude(deg)": -20.525323929629014,
        "Mean Anomaly(deg)": 43.26910447285112,
        "RAAN(deg)": 54.99285916462438,
        "Satellite Name": "Test1 244",
        "Satellite Number": 244,
        "Semi-Major Axis(m)": 6980739.136638005,
        "Time(s)": 170
    },
    {
        "Altitude(m)": 607051.2439588852,
        "Argument of Periapsis(deg)": 0.001875410264393353,
        "Eccentricity": 0.0,
        "Inclination(deg)": 60.0,
        "Latitude(deg)": 37.004413279957724,
        "Longitude(deg)": -20.08559613630244,
        "Mean Anomaly(deg)": 43.88921061831296,
        "RAAN(deg)": 54.992439115484636,
        "Satellite Name": "Test1 244",
        "Satellite Number": 244,
        "Semi-Major Axis(m)": 6980739.136638005,
        "Time(s)": 180
    },
    {
        "Altitude(m)": 607149.2367698358,
        "Argument of Periapsis(deg)": 0.0019795997235263173,
        "Eccentricity": 0.0,
        "Inclination(deg)": 60.0,
        "Latitude(deg)": 37.48898133649714,
        "Longitude(deg)": -19.6397154382688,
        "Mean Anomaly(deg)": 44.50931676377477,
        "RAAN(deg)": 54.992019066344895,
        "Satellite Name": "Test1 244",
        "Satellite Number": 244,
        "Semi-Major Axis(m)": 6980739.136638005,
        "Time(s)": 190
    }
]